INTELSAT 23 (IS-23)     
1 38867U 12057A   26192.05540207 -.00000277  00000+0  00000+0 0  9995
2 38867   0.0170  18.8581 0000731 226.6244  10.4081  1.00264936 50190
FM-6                    
1 39360U 13058A   26192.20808419 -.00000008  00000+0  00000+0 0  9997
2 39360   0.0145  50.0209 0001298 126.9585  70.6923  1.00269859 46316
INTELSAT 30 (IS-30)     
1 40271U 14062A   26191.26289811 -.00000140  00000+0  00000+0 0  9997
2 40271   0.0192  51.4260 0001237 336.2755 260.0814  1.00271243  7020
DIRECTV 14              
1 40333U 14078B   26192.24481272 -.00000118  00000+0  00000+0 0  9992
2 40333   0.0101  33.5840 0000261 282.0368 322.4257  1.00270037 42289
DIRECTV 15              
1 40663U 15026A   26192.20044228 -.00000095  00000+0  00000+0 0  9998
2 40663   0.0189  71.3102 0000244 151.4242  35.6627  1.00269791 40707
SKY MEXICO-1            
1 40664U 15026B   26192.20983478 -.00000227  00000+0  00000+0 0  9995
2 40664   0.0107  27.2233 0002304 106.4013 152.2395  1.00271142 40697
INTELSAT 34 (IS-34)     
1 40874U 15039A   26191.05688244 -.00000274  00000+0  00000+0 0  9999
2 40874   0.0101  16.1720 0000122 324.1781 272.6171  1.00270657 39865
INTELSAT 31 (IS-31)     
1 41581U 16035A   26191.26289811 -.00000140  00000+0  00000+0 0  9994
2 41581   0.0186 278.5787 0001013 347.5471  21.6525  1.00271183 36919
INTELSAT 36 (IS-36)     
1 41747U 16053A   26191.17525213 -.00000013  00000+0  00000+0 0  9996
2 41747   0.0102 354.9716 0002514 346.8192  77.8966  1.00268599 36189
INTELSAT 32E (IS-32E)   
1 41945U 17007B   26191.13065417  .00000000  00000+0  00000+0 0  9992
2 41945   0.0258  33.0821 0000341 235.9737  22.8541  1.00267562 34458
INTELSAT 35E (IS-35E)   
1 42818U 17041A   26192.05912001 -.00000230  00000+0  00000+0 0  9998
2 42818   0.0035  99.8969 0001599   9.2088 166.6588  1.00270312 33051
INTELSAT 37E (IS-37E)   
1 42950U 17059A   26192.20253300 -.00000134  00000+0  00000+0 0  9994
2 42950   0.0160  53.8956 0002502  63.4931 226.6373  1.00270660 32309
AZERSPACE 2 (IS-38)     
1 43632U 18074A   26192.07480676  .00000000  00000+0  00000+0 0  9994
2 43632   0.0274  36.4567 0001227  93.3502 231.2276  1.00270608 28689
HORIZONS-3E             
1 43633U 18074B   26191.88521850 -.00000022  00000+0  00000+0 0  9998
2 43633   0.0363 221.1947 0000856  57.5595 137.7302  1.00271701 28578
AT&T T-16               
1 44333U 19034A   26192.20121855 -.00000108  00000+0  00000+0 0  9996
2 44333   0.0141  66.5634 0000789 251.1395 302.9929  1.00272187 25879
INTELSAT 39 (IS-39)     
1 44476U 19049B   26192.07818678  .00000000  00000+0  00000+0 0  9991
2 44476   0.0273  37.2529 0000917 284.6695  57.1654  1.00270126 25367
GALAXY 30 (G-30)        
1 46114U 20056C   26192.23075975  .00000000  00000+0  00000+0 0  9995
2 46114   0.0285  42.6171 0001942  72.7748 131.8212  1.00270557 21531
GALAXY 33 (G-33)        
1 54026U 22128A   26192.18918795  .00000086  00000+0  00000+0 0  9992
2 54026   0.0141  25.2451 0001782  93.0323 105.9293  1.00270793 13981
GALAXY 34 (G-34)        
1 54027U 22128B   26192.04037515  .00000067  00000+0  00000+0 0  9999
2 54027   0.0112  37.5715 0001349  92.1383  44.7761  1.00269972 14151
GALAXY 31 (G-31)        
1 54243U 22153A   26192.20808419  .00000000  00000+0  00000+0 0  9991
2 54243   0.0222  52.7781 0000944  72.2078 118.0377  1.00269986  7374
GALAXY 32 (G-32)        
1 54244U 22153B   26192.04786497 -.00000166  00000+0  00000+0 0  9999
2 54244   0.0113  40.2962 0001467   6.0152 168.8832  1.00271115 13380
GALAXY 35 (G-35)        
1 54741U 22170A   26192.20453780  .00000000  00000+0  00000+0 0  9990
2 54741   0.0185  42.3763 0001866  73.6082 153.6629  1.00269451 13137
GALAXY 36 (G-36)        
1 54742U 22170B   26192.20587014 -.00000178  00000+0  00000+0 0  9996
2 54742   0.0273 113.9855 0002389 345.3606 174.8869  1.00271291 13018
GALAXY 37 (G-37)        
1 57493U 23112A   26192.22927409  .00000055  00000+0  00000+0 0  9990
2 57493   0.0138  64.5810 0001765  50.4319 129.6622  1.00270564 10786
